[{"OBJECT_NAME":"STARLINK-32499","OBJECT_ID":"2024-210A","EPOCH":"2026-03-08T09:00:46.484064","MEAN_MOTION":15.27620371,"ECCENTRICITY":0.00030926,"INCLINATION":43.0084,"RA_OF_ASC_NODE":186.8514,"ARG_OF_PERICENTER":269.5015,"MEAN_ANOMALY":90.5482,"EPHEMERIS_TYPE":0,"CLASSIFICATION_TYPE":"U","NORAD_CAT_ID":61959,"ELEMENT_SET_NO":999,"REV_AT_EPOCH":7472,"BSTAR":0.0013881409,"MEAN_MOTION_DOT":0.00038184,"MEAN_MOTION_DDOT":0},{"OBJECT_NAME":"TEVEL2-9","OBJECT_ID":"2025-052AD","EPOCH":"2026-03-09T16:51:18.321696","MEAN_MOTION":15.28633834,"ECCENTRICITY":0.000799,"INCLINATION":97.4057,"RA_OF_ASC_NODE":324.3929,"ARG_OF_PERICENTER":124.2475,"MEAN_ANOMALY":235.9522,"EPHEMERIS_TYPE":0,"CLASSIFICATION_TYPE":"U","NORAD_CAT_ID":63237,"ELEMENT_SET_NO":999,"REV_AT_EPOCH":5481,"BSTAR":0.00067240159,"MEAN_MOTION_DOT":0.00018694,"MEAN_MOTION_DDOT":0}]
