STARLINK-32499          
1 61959U 24210A   26067.37553801  .00038184  00000+0  13881-2 0  9998
2 61959  43.0084 186.8514 0003092 269.5015  90.5482 15.27620371 74728
TEVEL2-9                
1 63237U 25052AD  26068.70229538  .00018694  00000+0  67240-3 0  9992
2 63237  97.4057 324.3929 0007990 124.2475 235.9522 15.28633834 54816
